ORBCOMM FM20            
1 25416U 98046D   24311.54640630  .00004730  00000+0  16530-2 0  9994
2 25416  44.9917 154.9249 0000604 173.4728 186.6127 14.36224783372249
ORBCOMM FM16            
1 25417U 98046E   24311.57208466  .00005391  00000+0  18271-2 0  9993
2 25417  44.9913 149.0102 0003869 244.6977 115.3470 14.37564327372200
ORBCOMM FM15            
1 25418U 98046F   24311.56604542  .00005032  00000+0  17198-2 0  9997
2 25418  44.9946 153.5556 0003379 245.6326 114.4169 14.37239670372200
ORBCOMM FM14            
1 25419U 98046G   24311.56398468  .00005088  00000+0  17293-2 0  9992
2 25419  44.9934 152.3709 0002478 227.6177 132.4462 14.37505789372166
ORBCOMM FM13            
1 25420U 98046H   24311.57313824  .00004965  00000+0  17216-2 0  9996
2 25420  44.9950 158.3494 0004574 231.2767 128.7672 14.36539649371215
ORBCOMM FM21            
1 25475U 98053A   24311.33048838  .00005064  00000+0  17615-2 0  9992
2 25475  45.0075 244.1455 0000766 296.9825  63.0944 14.36363774365195
ORBCOMM FM22            
1 25476U 98053B   24311.23097298  .00005544  00000+0  18948-2 0  9999
2 25476  45.0067 241.0443 0001456 196.3428 163.7374 14.37110439365182
ORBCOMM FM23            
1 25477U 98053C   24311.56097436  .00005693  00000+0  19708-2 0  9990
2 25477  45.0076 245.4117 0000881 221.0223 139.0559 14.36442158365376
