<?xml version="1.0" encoding="UTF-8"?>
<ndm xmlns:xsi="http://www.w3.org/2001/XMLSchema-instance" xsi:noNamespaceSchemaLocation="https://sanaregistry.org/r/ndmxml_unqualified/ndmxml-2.0.0-master-2.0.xsd">
<omm id="CCSDS_OMM_VERS" version="2.0">
<header><CREATION_DATE/><ORIGINATOR/></header><body><segment><metadata><OBJECT_NAME>ORBCOMM FM20</OBJECT_NAME><OBJECT_ID>1998-046D</OBJECT_ID><CENTER_NAME>EARTH</CENTER_NAME><REF_FRAME>TEME</REF_FRAME><TIME_SYSTEM>UTC</TIME_SYSTEM><MEAN_ELEMENT_THEORY>SGP4</MEAN_ELEMENT_THEORY></metadata><data><meanElements><EPOCH>2024-11-06T13:06:49.504320</EPOCH><MEAN_MOTION>14.36224783</MEAN_MOTION><ECCENTRICITY>.0000604</ECCENTRICITY><INCLINATION>44.9917</INCLINATION><RA_OF_ASC_NODE>154.9249</RA_OF_ASC_NODE><ARG_OF_PERICENTER>173.4728</ARG_OF_PERICENTER><MEAN_ANOMALY>186.6127</MEAN_ANOMALY></meanElements><tleParameters><EPHEMERIS_TYPE>0</EPHEMERIS_TYPE><CLASSIFICATION_TYPE>U</CLASSIFICATION_TYPE><NORAD_CAT_ID>25416</NORAD_CAT_ID><ELEMENT_SET_NO>999</ELEMENT_SET_NO><REV_AT_EPOCH>37224</REV_AT_EPOCH><BSTAR>.1653E-2</BSTAR><MEAN_MOTION_DOT>.473E-4</MEAN_MOTION_DOT><MEAN_MOTION_DDOT>0</MEAN_MOTION_DDOT></tleParameters></data></segment></body></omm>
<omm id="CCSDS_OMM_VERS" version="2.0">
<header><CREATION_DATE/><ORIGINATOR/></header><body><segment><metadata><OBJECT_NAME>ORBCOMM FM16</OBJECT_NAME><OBJECT_ID>1998-046E</OBJECT_ID><CENTER_NAME>EARTH</CENTER_NAME><REF_FRAME>TEME</REF_FRAME><TIME_SYSTEM>UTC</TIME_SYSTEM><MEAN_ELEMENT_THEORY>SGP4</MEAN_ELEMENT_THEORY></metadata><data><meanElements><EPOCH>2024-11-06T13:43:48.114624</EPOCH><MEAN_MOTION>14.37564327</MEAN_MOTION><ECCENTRICITY>.0003869</ECCENTRICITY><INCLINATION>44.9913</INCLINATION><RA_OF_ASC_NODE>149.0102</RA_OF_ASC_NODE><ARG_OF_PERICENTER>244.6977</ARG_OF_PERICENTER><MEAN_ANOMALY>115.3470</MEAN_ANOMALY></meanElements><tleParameters><EPHEMERIS_TYPE>0</EPHEMERIS_TYPE><CLASSIFICATION_TYPE>U</CLASSIFICATION_TYPE><NORAD_CAT_ID>25417</NORAD_CAT_ID><ELEMENT_SET_NO>999</ELEMENT_SET_NO><REV_AT_EPOCH>37220</REV_AT_EPOCH><BSTAR>.18271E-2</BSTAR><MEAN_MOTION_DOT>.5391E-4</MEAN_MOTION_DOT><MEAN_MOTION_DDOT>0</MEAN_MOTION_DDOT></tleParameters></data></segment></body></omm>
<omm id="CCSDS_OMM_VERS" version="2.0">
<header><CREATION_DATE/><ORIGINATOR/></header><body><segment><metadata><OBJECT_NAME>ORBCOMM FM15</OBJECT_NAME><OBJECT_ID>1998-046F</OBJECT_ID><CENTER_NAME>EARTH</CENTER_NAME><REF_FRAME>TEME</REF_FRAME><TIME_SYSTEM>UTC</TIME_SYSTEM><MEAN_ELEMENT_THEORY>SGP4</MEAN_ELEMENT_THEORY></metadata><data><meanElements><EPOCH>2024-11-06T13:35:06.324288</EPOCH><MEAN_MOTION>14.37239670</MEAN_MOTION><ECCENTRICITY>.0003379</ECCENTRICITY><INCLINATION>44.9946</INCLINATION><RA_OF_ASC_NODE>153.5556</RA_OF_ASC_NODE><ARG_OF_PERICENTER>245.6326</ARG_OF_PERICENTER><MEAN_ANOMALY>114.4169</MEAN_ANOMALY></meanElements><tleParameters><EPHEMERIS_TYPE>0</EPHEMERIS_TYPE><CLASSIFICATION_TYPE>U</CLASSIFICATION_TYPE><NORAD_CAT_ID>25418</NORAD_CAT_ID><ELEMENT_SET_NO>999</ELEMENT_SET_NO><REV_AT_EPOCH>37220</REV_AT_EPOCH><BSTAR>.17198E-2</BSTAR><MEAN_MOTION_DOT>.5032E-4</MEAN_MOTION_DOT><MEAN_MOTION_DDOT>0</MEAN_MOTION_DDOT></tleParameters></data></segment></body></omm>
<omm id="CCSDS_OMM_VERS" version="2.0">
<header><CREATION_DATE/><ORIGINATOR/></header><body><segment><metadata><OBJECT_NAME>ORBCOMM FM14</OBJECT_NAME><OBJECT_ID>1998-046G</OBJECT_ID><CENTER_NAME>EARTH</CENTER_NAME><REF_FRAME>TEME</REF_FRAME><TIME_SYSTEM>UTC</TIME_SYSTEM><MEAN_ELEMENT_THEORY>SGP4</MEAN_ELEMENT_THEORY></metadata><data><meanElements><EPOCH>2024-11-06T13:32:08.276352</EPOCH><MEAN_MOTION>14.37505789</MEAN_MOTION><ECCENTRICITY>.0002478</ECCENTRICITY><INCLINATION>44.9934</INCLINATION><RA_OF_ASC_NODE>152.3709</RA_OF_ASC_NODE><ARG_OF_PERICENTER>227.6177</ARG_OF_PERICENTER><MEAN_ANOMALY>132.4462</MEAN_ANOMALY></meanElements><tleParameters><EPHEMERIS_TYPE>0</EPHEMERIS_TYPE><CLASSIFICATION_TYPE>U</CLASSIFICATION_TYPE><NORAD_CAT_ID>25419</NORAD_CAT_ID><ELEMENT_SET_NO>999</ELEMENT_SET_NO><REV_AT_EPOCH>37216</REV_AT_EPOCH><BSTAR>.17293E-2</BSTAR><MEAN_MOTION_DOT>.5088E-4</MEAN_MOTION_DOT><MEAN_MOTION_DDOT>0</MEAN_MOTION_DDOT></tleParameters></data></segment></body></omm>
<omm id="CCSDS_OMM_VERS" version="2.0">
<header><CREATION_DATE/><ORIGINATOR/></header><body><segment><metadata><OBJECT_NAME>ORBCOMM FM13</OBJECT_NAME><OBJECT_ID>1998-046H</OBJECT_ID><CENTER_NAME>EARTH</CENTER_NAME><REF_FRAME>TEME</REF_FRAME><TIME_SYSTEM>UTC</TIME_SYSTEM><MEAN_ELEMENT_THEORY>SGP4</MEAN_ELEMENT_THEORY></metadata><data><meanElements><EPOCH>2024-11-06T13:45:19.143936</EPOCH><MEAN_MOTION>14.36539649</MEAN_MOTION><ECCENTRICITY>.0004574</ECCENTRICITY><INCLINATION>44.9950</INCLINATION><RA_OF_ASC_NODE>158.3494</RA_OF_ASC_NODE><ARG_OF_PERICENTER>231.2767</ARG_OF_PERICENTER><MEAN_ANOMALY>128.7672</MEAN_ANOMALY></meanElements><tleParameters><EPHEMERIS_TYPE>0</EPHEMERIS_TYPE><CLASSIFICATION_TYPE>U</CLASSIFICATION_TYPE><NORAD_CAT_ID>25420</NORAD_CAT_ID><ELEMENT_SET_NO>999</ELEMENT_SET_NO><REV_AT_EPOCH>37121</REV_AT_EPOCH><BSTAR>.17216E-2</BSTAR><MEAN_MOTION_DOT>.4965E-4</MEAN_MOTION_DOT><MEAN_MOTION_DDOT>0</MEAN_MOTION_DDOT></tleParameters></data></segment></body></omm>
<omm id="CCSDS_OMM_VERS" version="2.0">
<header><CREATION_DATE/><ORIGINATOR/></header><body><segment><metadata><OBJECT_NAME>ORBCOMM FM21</OBJECT_NAME><OBJECT_ID>1998-053A</OBJECT_ID><CENTER_NAME>EARTH</CENTER_NAME><REF_FRAME>TEME</REF_FRAME><TIME_SYSTEM>UTC</TIME_SYSTEM><MEAN_ELEMENT_THEORY>SGP4</MEAN_ELEMENT_THEORY></metadata><data><meanElements><EPOCH>2024-11-06T07:55:54.196032</EPOCH><MEAN_MOTION>14.36363774</MEAN_MOTION><ECCENTRICITY>.0000766</ECCENTRICITY><INCLINATION>45.0075</INCLINATION><RA_OF_ASC_NODE>244.1455</RA_OF_ASC_NODE><ARG_OF_PERICENTER>296.9825</ARG_OF_PERICENTER><MEAN_ANOMALY>63.0944</MEAN_ANOMALY></meanElements><tleParameters><EPHEMERIS_TYPE>0</EPHEMERIS_TYPE><CLASSIFICATION_TYPE>U</CLASSIFICATION_TYPE><NORAD_CAT_ID>25475</NORAD_CAT_ID><ELEMENT_SET_NO>999</ELEMENT_SET_NO><REV_AT_EPOCH>36519</REV_AT_EPOCH><BSTAR>.17615E-2</BSTAR><MEAN_MOTION_DOT>.5064E-4</MEAN_MOTION_DOT><MEAN_MOTION_DDOT>0</MEAN_MOTION_DDOT></tleParameters></data></segment></body></omm>
<omm id="CCSDS_OMM_VERS" version="2.0">
<header><CREATION_DATE/><ORIGINATOR/></header><body><segment><metadata><OBJECT_NAME>ORBCOMM FM22</OBJECT_NAME><OBJECT_ID>1998-053B</OBJECT_ID><CENTER_NAME>EARTH</CENTER_NAME><REF_FRAME>TEME</REF_FRAME><TIME_SYSTEM>UTC</TIME_SYSTEM><MEAN_ELEMENT_THEORY>SGP4</MEAN_ELEMENT_THEORY></metadata><data><meanElements><EPOCH>2024-11-06T05:32:36.065472</EPOCH><MEAN_MOTION>14.37110439</MEAN_MOTION><ECCENTRICITY>.0001456</ECCENTRICITY><INCLINATION>45.0067</INCLINATION><RA_OF_ASC_NODE>241.0443</RA_OF_ASC_NODE><ARG_OF_PERICENTER>196.3428</ARG_OF_PERICENTER><MEAN_ANOMALY>163.7374</MEAN_ANOMALY></meanElements><tleParameters><EPHEMERIS_TYPE>0</EPHEMERIS_TYPE><CLASSIFICATION_TYPE>U</CLASSIFICATION_TYPE><NORAD_CAT_ID>25476</NORAD_CAT_ID><ELEMENT_SET_NO>999</ELEMENT_SET_NO><REV_AT_EPOCH>36518</REV_AT_EPOCH><BSTAR>.18948E-2</BSTAR><MEAN_MOTION_DOT>.5544E-4</MEAN_MOTION_DOT><MEAN_MOTION_DDOT>0</MEAN_MOTION_DDOT></tleParameters></data></segment></body></omm>
<omm id="CCSDS_OMM_VERS" version="2.0">
<header><CREATION_DATE/><ORIGINATOR/></header><body><segment><metadata><OBJECT_NAME>ORBCOMM FM23</OBJECT_NAME><OBJECT_ID>1998-053C</OBJECT_ID><CENTER_NAME>EARTH</CENTER_NAME><REF_FRAME>TEME</REF_FRAME><TIME_SYSTEM>UTC</TIME_SYSTEM><MEAN_ELEMENT_THEORY>SGP4</MEAN_ELEMENT_THEORY></metadata><data><meanElements><EPOCH>2024-11-06T13:27:48.184704</EPOCH><MEAN_MOTION>14.36442158</MEAN_MOTION><ECCENTRICITY>.0000881</ECCENTRICITY><INCLINATION>45.0076</INCLINATION><RA_OF_ASC_NODE>245.4117</RA_OF_ASC_NODE><ARG_OF_PERICENTER>221.0223</ARG_OF_PERICENTER><MEAN_ANOMALY>139.0559</MEAN_ANOMALY></meanElements><tleParameters><EPHEMERIS_TYPE>0</EPHEMERIS_TYPE><CLASSIFICATION_TYPE>U</CLASSIFICATION_TYPE><NORAD_CAT_ID>25477</NORAD_CAT_ID><ELEMENT_SET_NO>999</ELEMENT_SET_NO><REV_AT_EPOCH>36537</REV_AT_EPOCH><BSTAR>.19708E-2</BSTAR><MEAN_MOTION_DOT>.5693E-4</MEAN_MOTION_DOT><MEAN_MOTION_DDOT>0</MEAN_MOTION_DDOT></tleParameters></data></segment></body></omm>

</ndm>
